[{"OBJECT_NAME":"STARLINK-5919","OBJECT_ID":"2023-037P","EPOCH":"2026-03-09T21:53:55.511520","MEAN_MOTION":14.9830823,"ECCENTRICITY":0.00026639,"INCLINATION":70.0036,"RA_OF_ASC_NODE":303.7784,"ARG_OF_PERICENTER":210.5626,"MEAN_ANOMALY":149.5378,"EPHEMERIS_TYPE":0,"CLASSIFICATION_TYPE":"U","NORAD_CAT_ID":55927,"ELEMENT_SET_NO":999,"REV_AT_EPOCH":16352,"BSTAR":-4.2850414e-5,"MEAN_MOTION_DOT":-6.04e-6,"MEAN_MOTION_DDOT":0},{"OBJECT_NAME":"SAUDISAT 1B (SO-42)","OBJECT_ID":"2000-057E","EPOCH":"2026-03-09T23:18:23.116032","MEAN_MOTION":14.90902697,"ECCENTRICITY":0.00345198,"INCLINATION":64.5499,"RA_OF_ASC_NODE":306.1635,"ARG_OF_PERICENTER":324.2198,"MEAN_ANOMALY":35.6599,"EPHEMERIS_TYPE":0,"CLASSIFICATION_TYPE":"U","NORAD_CAT_ID":26549,"ELEMENT_SET_NO":999,"REV_AT_EPOCH":37681,"BSTAR":0.00018442418,"MEAN_MOTION_DOT":1.685e-5,"MEAN_MOTION_DDOT":0}]
